{
    "links": {
        "self": "http://www.neowsapp.com/rest/v1/neo/3836162?api_key=iIulBulltgU6a56xZRHN4H3l9WmuAYTsLGpBGhQ2"
    },
    "id": "3836162",
    "neo_reference_id": "3836162",
    "name": "(2018 VP6)",
    "designation": "2018 VP6",
    "nasa_jpl_url": "http://ssd.jpl.nasa.gov/sbdb.cgi?sstr=3836162",
    "absolute_magnitude_h": 27.1,
    "estimated_diameter": {
        "kilometers": {
            "estimated_diameter_min": 0.0101054342,
            "estimated_diameter_max": 0.0225964377
        },
        "meters": {
            "estimated_diameter_min": 10.1054341542,
            "estimated_diameter_max": 22.5964377109
        },
        "miles": {
            "estimated_diameter_min": 0.0062792237,
            "estimated_diameter_max": 0.0140407711
        },
        "feet": {
            "estimated_diameter_min": 33.1543125905,
            "estimated_diameter_max": 74.1352966996
        }
    },
    "is_potentially_hazardous_asteroid": false,
    "close_approach_data": [
        {
            "close_approach_date": "2016-12-14",
            "close_approach_date_full": "2016-Dec-14 19:37",
            "epoch_date_close_approach": 1481744220000,
            "relative_velocity": {
                "kilometers_per_second": "3.080342443",
                "kilometers_per_hour": "11089.2327948486",
                "miles_per_hour": "6890.4180107769"
            },
            "miss_distance": {
                "astronomical": "1.6527570721",
                "lunar": "642.9225010469",
                "kilometers": "247248937.613596427",
                "miles": "153633365.7592556126"
            },
            "orbiting_body": "Juptr"
        },
        {
            "close_approach_date": "2018-11-07",
            "close_approach_date_full": "2018-Nov-07 11:25",
            "epoch_date_close_approach": 1541589900000,
            "relative_velocity": {
                "kilometers_per_second": "12.1627575293",
                "kilometers_per_hour": "43785.9271054076",
                "miles_per_hour": "27206.8723172462"
            },
            "miss_distance": {
                "astronomical": "0.0200975038",
                "lunar": "7.8179289782",
                "kilometers": "3006543.760796906",
                "miles": "1868179.6643170628"
            },
            "orbiting_body": "Earth"
        }
    ],
    "orbital_data": {
        "orbit_id": "5",
        "orbit_determination_date": "2020-10-26 06:50:48",
        "first_observation_date": "2018-11-10",
        "last_observation_date": "2018-11-19",
        "data_arc_in_days": 9,
        "observations_used": 34,
        "orbit_uncertainty": "8",
        "minimum_orbit_intersection": ".00594756",
        "jupiter_tisserand_invariant": "3.251",
        "epoch_osculation": "2458436.5",
        "eccentricity": ".6140171895885872",
        "semi_major_axis": "2.381452023150084",
        "inclination": "3.727083986578701",
        "ascending_node_longitude": "47.02127198366711",
        "orbital_period": "1342.33582735858",
        "perihelion_distance": ".9191995447554144",
        "perihelion_argument": "318.3577800797008",
        "aphelion_distance": "3.843704501544754",
        "perihelion_time": "2458401.327283627402",
        "mean_anomaly": "9.432943408097545",
        "mean_motion": ".2681892211045282",
        "equinox": "J2000",
        "orbit_class": {
            "orbit_class_type": "APO",
            "orbit_class_description": "Near-Earth asteroid orbits which cross the Earth’s orbit similar to that of 1862 Apollo",
            "orbit_class_range": "a (semi-major axis) > 1.0 AU; q (perihelion) < 1.017 AU"
        }
    },
    "is_sentry_object": false
}